COSMOS 2251 DEB         
1 37510U 93036BMP 17344.83827510  .00000752  00000-0  14125-3 0  9990
2 37510  74.0177  35.4567 0038835 180.4041 179.7103 14.66123375237164
